{
  "norad_id": 58115,
  "name": "STARLINK-30580",
  "history": [
    {
      "epoch": "2026-03-28T07:08:44.486304Z",
      "apogee_km": 476.212371544706,
      "perigee_km": 474.28519946182314,
      "latitude_deg": 4.83606006386906e-05,
      "longitude_deg": 145.95587765118646,
      "height_km": 476.2197433789811,
      "semi_major_axis_km": 6853.385785503265,
      "eccentricity": 0.0001406,
      "inclination_deg": 53.1609,
      "raan_deg": 78.8614,
      "arg_perigee_deg": 94.3437,
      "mean_anomaly_deg": 265.7725,
      "mean_motion_rev_day": 15.30188708
    },
    {
      "epoch": "2026-03-29T05:05:29.263200Z",
      "apogee_km": 476.18867130130457,
      "perigee_km": 474.2985089345502,
      "latitude_deg": -3.8754803152231016e-05,
      "longitude_deg": 171.6206613791592,
      "height_km": 476.1989096451519,
      "semi_major_axis_km": 6853.380590117928,
      "eccentricity": 0.0001379,
      "inclination_deg": 53.1614,
      "raan_deg": 74.6141,
      "arg_perigee_deg": 93.4723,
      "mean_anomaly_deg": 266.6435,
      "mean_motion_rev_day": 15.30190448
    },
    {
      "epoch": "2026-03-30T04:36:17.294112Z",
      "apogee_km": 476.22021331375345,
      "perigee_km": 474.2711112845964,
      "latitude_deg": -4.034512277318679e-05,
      "longitude_deg": 173.40447337772537,
      "height_km": 476.26294583977193,
      "semi_major_axis_km": 6853.382662299175,
      "eccentricity": 0.0001422,
      "inclination_deg": 53.1621,
      "raan_deg": 70.0637,
      "arg_perigee_deg": 97.0243,
      "mean_anomaly_deg": 263.0919,
      "mean_motion_rev_day": 15.30189754
    },
    {
      "epoch": "2026-03-30T06:10:20.559360Z",
      "apogee_km": 476.2203133665462,
      "perigee_km": 474.27258179074397,
      "latitude_deg": 3.090281303715975e-05,
      "longitude_deg": 149.5239433683066,
      "height_km": 476.2518473122958,
      "semi_major_axis_km": 6853.383447578645,
      "eccentricity": 0.0001421,
      "inclination_deg": 53.1622,
      "raan_deg": 69.7611,
      "arg_perigee_deg": 96.3254,
      "mean_anomaly_deg": 263.7909,
      "mean_motion_rev_day": 15.30189491
    },
    {
      "epoch": "2026-03-30T15:34:39.501984Z",
      "apogee_km": 476.17470572505226,
      "perigee_km": 474.3019523826342,
      "latitude_deg": -4.391931369368658e-05,
      "longitude_deg": 6.239000101331642,
      "height_km": 476.23047015876045,
      "semi_major_axis_km": 6853.3753290538425,
      "eccentricity": 0.00013663,
      "inclination_deg": 53.1621,
      "raan_deg": 67.9414,
      "arg_perigee_deg": 95.7591,
      "mean_anomaly_deg": 264.3565,
      "mean_motion_rev_day": 15.3019221
    },
    {
      "epoch": "2026-03-31T15:05:27.882816Z",
      "apogee_km": 476.12357915163284,
      "perigee_km": 474.3800770337657,
      "latitude_deg": -2.8424067131488395e-05,
      "longitude_deg": 8.020963501909774,
      "height_km": 476.26064471665325,
      "semi_major_axis_km": 6853.3888280926985,
      "eccentricity": 0.0001272,
      "inclination_deg": 53.1619,
      "raan_deg": 63.3906,
      "arg_perigee_deg": 97.2841,
      "mean_anomaly_deg": 262.8304,
      "mean_motion_rev_day": 15.30187689
    },
    {
      "epoch": "2026-04-01T14:36:15.467904Z",
      "apogee_km": 476.0806611586322,
      "perigee_km": 474.38376694123417,
      "latitude_deg": 5.9058142855730544e-05,
      "longitude_deg": 9.805905194011359,
      "height_km": 476.18999835767323,
      "semi_major_axis_km": 6853.369214049933,
      "eccentricity": 0.0001238,
      "inclination_deg": 53.1614,
      "raan_deg": 58.8394,
      "arg_perigee_deg": 94.0229,
      "mean_anomaly_deg": 266.0914,
      "mean_motion_rev_day": 15.30194258
    },
    {
      "epoch": "2026-04-02T14:07:02.571744Z",
      "apogee_km": 476.0672931995896,
      "perigee_km": 474.34957070052496,
      "latitude_deg": 1.2302679866489974e-05,
      "longitude_deg": 11.594457190491518,
      "height_km": 476.399536597185,
      "semi_major_axis_km": 6853.345431950057,
      "eccentricity": 0.00012532,
      "inclination_deg": 53.1627,
      "raan_deg": 54.2899,
      "arg_perigee_deg": 109.92,
      "mean_anomaly_deg": 250.1936,
      "mean_motion_rev_day": 15.30202223
    },
    {
      "epoch": "2026-04-02T21:57:17.544096Z",
      "apogee_km": 475.75718558838344,
      "perigee_km": 474.59253377094956,
      "latitude_deg": -1.2840043865116159e-05,
      "longitude_deg": -107.80822048480364,
      "height_km": 475.9932961638129,
      "semi_major_axis_km": 6853.311859679666,
      "eccentricity": 8.497e-05,
      "inclination_deg": 53.1613,
      "raan_deg": 52.7715,
      "arg_perigee_deg": 82.0678,
      "mean_anomaly_deg": 278.0419,
      "mean_motion_rev_day": 15.30213467
    }
  ]
}